import pandas as pd

# df = pd.read_csv("master_sp3_data.csv", header=None)

# sorted_df = df.sort_values(by=[1,0], ascending=[True, True])

# only1sat = sorted_df[sorted_df[1] == "PC06"]

# print(only1sat)

# only1sat.to_csv("only1sat.csv", index=False, header=False)


# 3.0,GENERATED VIA SPACE-TRACK.ORG API,2026-05-14T10:30:29,18 SPCS,BEIDOU 3 IGSO-1,2019-023A,EARTH,TEME,UTC,SGP4,2026-05-12 18:25:31.496160+00:00,1.00250503,0.00238565,58.6468,38.0171,234.3090,349.8662,0,U,44204,999,685,0.00000000000000,-0.00000227,0.0000000000000,42170.699,1436.402,35893.168,35691.960,PAYLOAD,LARGE,PRC,2019-04-20,XSC,,5196435,323339289,0 BEIDOU 3 IGSO-1,1 44204U 19023A   26132.76772565 -.00000227  00000-0  00000-0 0  9990,2 44204  58.6468  38.0171 0023856 234.3090 349.8662  1.00250503  6851,44204